[{"OBJECT_NAME":"MAKERSAT 0","OBJECT_ID":"2017-073D","EPOCH":"2026-03-09T15:16:53.554944","MEAN_MOTION":15.27797199,"ECCENTRICITY":0.0115258,"INCLINATION":97.4777,"RA_OF_ASC_NODE":310.6155,"ARG_OF_PERICENTER":266.0743,"MEAN_ANOMALY":92.7313,"EPHEMERIS_TYPE":0,"CLASSIFICATION_TYPE":"U","NORAD_CAT_ID":43016,"ELEMENT_SET_NO":999,"REV_AT_EPOCH":45124,"BSTAR":0.0007159,"MEAN_MOTION_DOT":0.00023659,"MEAN_MOTION_DDOT":0},{"OBJECT_NAME":"STARLINK-31592","OBJECT_ID":"2024-068N","EPOCH":"2026-03-09T06:11:26.459232","MEAN_MOTION":15.27575645,"ECCENTRICITY":0.00011826,"INCLINATION":43.0027,"RA_OF_ASC_NODE":37.2216,"ARG_OF_PERICENTER":275.3855,"MEAN_ANOMALY":84.6862,"EPHEMERIS_TYPE":0,"CLASSIFICATION_TYPE":"U","NORAD_CAT_ID":59467,"ELEMENT_SET_NO":999,"REV_AT_EPOCH":10845,"BSTAR":-3.9478675e-5,"MEAN_MOTION_DOT":-1.348e-5,"MEAN_MOTION_DDOT":0}]
